ORBCOMM-X               
1 21576U 91050C   25184.18396028  .00000224  00000+0  79157-4 0  9993
2 21576  98.3428 250.4571 0004632 127.4218 232.7394 14.43272208784429
ORBCOMM FM01            
1 23545U 95017A   25184.57866163  .00003887  00000+0  40900-3 0  9994
2 23545  69.9641  33.2565 0005374 274.9034  85.1506 14.90203859614959
ORBCOMM FM02            
1 23546U 95017B   25184.64591919  .00004072  00000+0  41864-3 0  9994
2 23546  69.9651  52.4271 0006780 277.2537  82.7847 14.91092941614617
ORBCOMM FM08            
1 25112U 97084A   25184.55654902  .00000843  00000+0  27569-3 0  9991
2 25112  45.0147 289.2832 0005962 311.8877  48.1465 14.45847660443740
ORBCOMM FM10            
1 25113U 97084B   25184.33274179  .00000835  00000+0  27465-3 0  9998
2 25113  45.0160 292.7661 0005569 274.9351  85.0864 14.45635574618852
ORBCOMM FM11            
1 25114U 97084C   25184.61655814  .00000885  00000+0  29007-3 0  9998
2 25114  45.0144 292.0666 0006253 279.9421  80.0724 14.45385530443857
ORBCOMM FM12            
1 25115U 97084D   25184.57880179  .00000797  00000+0  26506-3 0  9991
2 25115  45.0151 291.9961 0005433 273.9670  86.0560 14.45405860443641
